{"type": "FeatureCollection", "features": [ {"type": "Feature", "properties": {"norad_id": 66579, "name": "STARLINK-35868", "group": "last-30-days", "lat": -5.395700254536282, "lon": -73.10540968050415, "alt_km": 415.5544287344246, "timestamp": "2025-12-16T03:53:25.815697+00:00", "meta": {"OBJECT_NAME": "STARLINK-35868", "OBJECT_ID": "2025-268Y", "EPOCH": "2025-12-15T08:32:01.184064", "MEAN_MOTION": 15.50616977, "ECCENTRICITY": 0.00010211, "INCLINATION": 42.9953, "RA_OF_ASC_NODE": 105.7958, "ARG_OF_PERICENTER": 311.2592, "MEAN_ANOMALY": 48.818, "EPHEMERIS_TYPE": 0, "CLASSIFICATION_TYPE": "U", "NORAD_CAT_ID": 66579, "ELEMENT_SET_NO": 999, "REV_AT_EPOCH": 503, "BSTAR": 0.00086971084, "MEAN_MOTION_DOT": 0.00051083, "MEAN_MOTION_DDOT": 0}, "tle": {"line1": "1 66579U 25268Y   25349.35556926  .00051083  00000+0  86971-3 0  9990", "line2": "2 66579  42.9953 105.7958 0001021 311.2592  48.8180 15.50616977  5033"}}, "geometry": {"type": "Point", "coordinates": [-73.10540968050415, -5.395700254536282]}}, {"type": "Feature", "properties": {"norad_id": 66580, "name": "STARLINK-35872", "group": "last-30-days", "lat": -6.8401727523749765, "lon": -71.53231404157984, "alt_km": 415.4294776473462, "timestamp": "2025-12-16T03:53:25.815708+00:00", "meta": {"OBJECT_NAME": "STARLINK-35872", "OBJECT_ID": "2025-268Z", "EPOCH": "2025-12-15T08:31:30.920736", "MEAN_MOTION": 15.50656168, "ECCENTRICITY": 0.00010335, "INCLINATION": 42.9971, "RA_OF_ASC_NODE": 105.7929, "ARG_OF_PERICENTER": 307.8329, "MEAN_ANOMALY": 52.2438, "EPHEMERIS_TYPE": 0, "CLASSIFICATION_TYPE": "U", "NORAD_CAT_ID": 66580, "ELEMENT_SET_NO": 999, "REV_AT_EPOCH": 503, "BSTAR": 0.0013234565, "MEAN_MOTION_DOT": 0.00078294, "MEAN_MOTION_DDOT": 0}, "tle": {"line1": "1 66580U 25268Z   25349.35521899  .00078294  00000+0  13235-2 0  9998", "line2": "2 66580  42.9971 105.7929 0001033 307.8329  52.2438 15.50656168  5036"}}, "geometry": {"type": "Point", "coordinates": [-71.53231404157984, -6.8401727523749765]}}, {"type": "Feature", "properties": {"norad_id": 66581, "name": "STARLINK-35744", "group": "last-30-days", "lat": -8.003140149800878, "lon": -70.25398272120542, "alt_km": 415.3579265415765, "timestamp": "2025-12-16T03:53:25.815718+00:00", "meta": {"OBJECT_NAME": "STARLINK-35744", "OBJECT_ID": "2025-268AA", "EPOCH": "2025-12-15T08:31:01.914528", "MEAN_MOTION": 15.50620394, "ECCENTRICITY": 7.511e-05, "INCLINATION": 42.997, "RA_OF_ASC_NODE": 105.7908, "ARG_OF_PERICENTER": 271.7111, "MEAN_ANOMALY": 88.3663, "EPHEMERIS_TYPE": 0, "CLASSIFICATION_TYPE": "U", "NORAD_CAT_ID": 66581, "ELEMENT_SET_NO": 999, "REV_AT_EPOCH": 503, "BSTAR": 0.00095626145, "MEAN_MOTION_DOT": 0.00056244, "MEAN_MOTION_DDOT": 0}, "tle": {"line1": "1 66581U 25268AA  25349.35488327  .00056244  00000+0  95626-3 0  9993", "line2": "2 66581  42.9970 105.7908 0000751 271.7111  88.3663 15.50620394  5039"}}, "geometry": {"type": "Point", "coordinates": [-70.25398272120542, -8.003140149800878]}}, {"type": "Feature", "properties": {"norad_id": 66582, "name": "STARLINK-35746", "group": "last-30-days", "lat": -9.26575602104448, "lon": -68.85554456511584, "alt_km": 415.2781686737644, "timestamp": "2025-12-16T03:53:25.815731+00:00", "meta": {"OBJECT_NAME": "STARLINK-35746", "OBJECT_ID": "2025-268AB", "EPOCH": "2025-12-15T08:30:32.188608", "MEAN_MOTION": 15.50607013, "ECCENTRICITY": 0.00014716, "INCLINATION": 42.999, "RA_OF_ASC_NODE": 105.7865, "ARG_OF_PERICENTER": 261.5537, "MEAN_ANOMALY": 98.5156, "EPHEMERIS_TYPE": 0, "CLASSIFICATION_TYPE": "U", "NORAD_CAT_ID": 66582, "ELEMENT_SET_NO": 999, "REV_AT_EPOCH": 503, "BSTAR": 0.0010250529, "MEAN_MOTION_DOT": 0.00060318, "MEAN_MOTION_DDOT": 0}, "tle": {"line1": "1 66582U 25268AB  25349.35453922  .00060318  00000+0  10251-2 0  9994", "line2": "2 66582  42.9990 105.7865 0001471 261.5537  98.5156 15.50607013  5036"}}, "geometry": {"type": "Point", "coordinates": [-68.85554456511584, -9.26575602104448]}}, {"type": "Feature", "properties": {"norad_id": 66583, "name": "STARLINK-35941", "group": "last-30-days", "lat": -10.562248895893502, "lon": -67.39844221505957, "alt_km": 415.67598144364, "timestamp": "2025-12-16T03:53:25.815741+00:00", "meta": {"OBJECT_NAME": "STARLINK-35941", "OBJECT_ID": "2025-268AC", "EPOCH": "2025-12-15T08:30:02.629440", "MEAN_MOTION": 15.50615435, "ECCENTRICITY": 7.164e-05, "INCLINATION": 42.9968, "RA_OF_ASC_NODE": 105.785, "ARG_OF_PERICENTER": 276.043, "MEAN_ANOMALY": 84.0348, "EPHEMERIS_TYPE": 0, "CLASSIFICATION_TYPE": "U", "NORAD_CAT_ID": 66583, "ELEMENT_SET_NO": 999, "REV_AT_EPOCH": 503, "BSTAR": 0.00090646332, "MEAN_MOTION_DOT": 0.00053268, "MEAN_MOTION_DDOT": 0}, "tle": {"line1": "1 66583U 25268AC  25349.35419710  .00053268  00000+0  90646-3 0  9995", "line2": "2 66583  42.9968 105.7850 0000716 276.0430  84.0348 15.50615435  5030"}}, "geometry": {"type": "Point", "coordinates": [-67.39844221505957, -10.562248895893502]}}, {"type": "Feature", "properties": {"norad_id": 66584, "name": "STARLINK-35939", "group": "last-30-days", "lat": -11.937089665336051, "lon": -65.83468002658715, "alt_km": 415.93213291800566, "timestamp": "2025-12-16T03:53:25.815754+00:00", "meta": {"OBJECT_NAME": "STARLINK-35939", "OBJECT_ID": "2025-268AD", "EPOCH": "2025-12-15T00:45:45.968256", "MEAN_MOTION": 15.50609742, "ECCENTRICITY": 0.00015134, "INCLINATION": 42.9992, "RA_OF_ASC_NODE": 107.6662, "ARG_OF_PERICENTER": 292.4223, "MEAN_ANOMALY": 67.6477, "EPHEMERIS_TYPE": 0, "CLASSIFICATION_TYPE": "U", "NORAD_CAT_ID": 66584, "ELEMENT_SET_NO": 999, "REV_AT_EPOCH": 498, "BSTAR": 0.0010420829, "MEAN_MOTION_DOT": 0.0006134, "MEAN_MOTION_DDOT": 0}, "tle": {"line1": "1 66584U 25268AD  25349.03178204  .00061340  00000+0  10421-2 0  9993", "line2": "2 66584  42.9992 107.6662 0001513 292.4223  67.6477 15.50609742  4985"}}, "geometry": {"type": "Point", "coordinates": [-65.83468002658715, -11.937089665336051]}}, {"type": "Feature", "properties": {"norad_id": 66585, "name": "STARLINK-35963", "group": "last-30-days", "lat": -13.144987882901768, "lon": -64.43540127122128, "alt_km": 416.15313265133045, "timestamp": "2025-12-16T03:53:25.815765+00:00", "meta": {"OBJECT_NAME": "STARLINK-35963", "OBJECT_ID": "2025-268AE", "EPOCH": "2025-12-15T08:29:03.325344", "MEAN_MOTION": 15.50627021, "ECCENTRICITY": 7.521e-05, "INCLINATION": 42.9967, "RA_OF_ASC_NODE": 105.7807, "ARG_OF_PERICENTER": 312.518, "MEAN_ANOMALY": 47.5617, "EPHEMERIS_TYPE": 0, "CLASSIFICATION_TYPE": "U", "NORAD_CAT_ID": 66585, "ELEMENT_SET_NO": 999, "REV_AT_EPOCH": 503, "BSTAR": 0.0010345539, "MEAN_MOTION_DOT": 0.00060928, "MEAN_MOTION_DDOT": 0}, "tle": {"line1": "1 66585U 25268AE  25349.35351071  .00060928  00000+0  10346-2 0  9991", "line2": "2 66585  42.9967 105.7807 0000752 312.5180  47.5617 15.50627021  5038"}}, "geometry": {"type": "Point", "coordinates": [-64.43540127122128, -13.144987882901768]}}, {"type": "Feature", "properties": {"norad_id": 66586, "name": "TJS-21", "group": "last-30-days", "lat": 1.280977755662349, "lon": -18.677744368293578, "alt_km": 8097.463063078897, "timestamp": "2025-12-16T03:53:25.815778+00:00", "meta": {"OBJECT_NAME": "TJS-21", "OBJECT_ID": "2025-269A", "EPOCH": "2025-12-10T17:31:22.184832", "MEAN_MOTION": 2.00567425, "ECCENTRICITY": 0.6805766, "INCLINATION": 63.269, "RA_OF_ASC_NODE": 162.5612, "ARG_OF_PERICENTER": 269.7806, "MEAN_ANOMALY": 18.6565, "EPHEMERIS_TYPE": 0, "CLASSIFICATION_TYPE": "U", "NORAD_CAT_ID": 66586, "ELEMENT_SET_NO": 999, "REV_AT_EPOCH": 39, "BSTAR": -0.044965385, "MEAN_MOTION_DOT": 1.083e-05, "MEAN_MOTION_DDOT": 0}, "tle": {"line1": "1 66586U 25269A   25344.73011788  .00001083  00000+0 -44965-1 0  9999", "line2": "2 66586  63.2690 162.5612 6805766 269.7806  18.6565  2.00567425   392"}}, "geometry": {"type": "Point", "coordinates": [-18.677744368293578, 1.280977755662349]}}, {"type": "Feature", "properties": {"norad_id": 66587, "name": "CZ-3B R/B", "group": "last-30-days", "lat": 7.403852580810513, "lon": -17.22213826770978, "alt_km": 1864.945120267089, "timestamp": "2025-12-16T03:53:25.815794+00:00", "meta": {"OBJECT_NAME": "CZ-3B R/B", "OBJECT_ID": "2025-269B", "EPOCH": "2025-12-12T18:47:24.789120", "MEAN_MOTION": 2.03336189, "ECCENTRICITY": 0.7518951, "INCLINATION": 51.347, "RA_OF_ASC_NODE": 169.6347, "ARG_OF_PERICENTER": 228.7177, "MEAN_ANOMALY": 37.1847, "EPHEMERIS_TYPE": 0, "CLASSIFICATION_TYPE": "U", "NORAD_CAT_ID": 66587, "ELEMENT_SET_NO": 999, "REV_AT_EPOCH": 45, "BSTAR": 0.00096662605, "MEAN_MOTION_DOT": 0.00067576, "MEAN_MOTION_DDOT": 1.09445e-06}, "tle": {"line1": "1 66587U 25269B   25346.78292580  .00067576  10944-5  96663-3 0  9994", "line2": "2 66587  51.3470 169.6347 7518951 228.7177  37.1847  2.03336189   454"}}, "geometry": {"type": "Point", "coordinates": [-17.22213826770978, 7.403852580810513]}}, {"type": "Feature", "properties": {"norad_id": 66588, "name": "STARLINK-36076", "group": "last-30-days", "lat": -37.40795391820472, "lon": 117.89754937397701, "alt_km": 446.1090177310298, "timestamp": "2025-12-16T03:53:25.815807+00:00", "meta": {"OBJECT_NAME": "STARLINK-36076", "OBJECT_ID": "2025-270A", "EPOCH": "2025-12-15T08:00:01.999872", "MEAN_MOTION": 15.40715997, "ECCENTRICITY": 0.00019486, "INCLINATION": 42.9996, "RA_OF_ASC_NODE": 177.8314, "ARG_OF_PERICENTER": 242.3255, "MEAN_ANOMALY": 132.4374, "EPHEMERIS_TYPE": 0, "CLASSIFICATION_TYPE": "U", "NORAD_CAT_ID": 66588, "ELEMENT_SET_NO": 999, "REV_AT_EPOCH": 481, "BSTAR": 0.00071664223, "MEAN_MOTION_DOT": 0.00029766, "MEAN_MOTION_DDOT": 0}, "tle": {"line1": "1 66588U 25270A   25349.33335648  .00029766  00000+0  71664-3 0  9993", "line2": "2 66588  42.9996 177.8314 0001948 242.3255 132.4374 15.40715997  4815"}}, "geometry": {"type": "Point", "coordinates": [117.89754937397701, -37.40795391820472]}}]}